start=new Date('2022-09-03T00:00:00.000Z').valueOf();
sats=[{"SITE":"AFWTR","FILE":"3555599","EPHEMERIS_TYPE":"0","NORAD_CAT_ID":"51790","EPOCH":"2022-09-02T22:00:01.999584","MEAN_ELEMENT_THEORY":"SGP4","MEAN_MOTION_DOT":"-0.00066147","TLE_LINE2":"2 51790  53.2175 352.2145 0001681  58.2042 341.4824 15.08869447  1308","CLASSIFICATION_TYPE":"U","ECCENTRICITY":"0.00016810","PERIAPSIS":"538.493","REV_AT_EPOCH":"130","GP_ID":"211590494","OBJECT_TYPE":"PAYLOAD","MEAN_ANOMALY":"341.4824","RA_OF_ASC_NODE":"352.2145","DECAY_DATE":null,"COUNTRY_CODE":"US","CENTER_NAME":"EARTH","REF_FRAME":"TEME","TLE_LINE1":"1 51790U 22017Y   22245.91668981 -.00066147  00000-0 -41731-2 0  9991","MEAN_MOTION":"15.08869447","RCS_SIZE":"MEDIUM","APOAPSIS":"540.818","TIME_SYSTEM":"UTC","PERIOD":"95.436","ARG_OF_PERICENTER":"58.2042","OBJECT_NAME":"STARLINK-3631","OBJECT_ID":"2022-017Y","INCLINATION":"53.2175","MEAN_MOTION_DDOT":"0.0000000000000","ELEMENT_SET_NO":"999","LAUNCH_DATE":"2022-02-25","SEMIMAJOR_AXIS":"6917.790","BSTAR":"-0.00417310000000"},{"OBJECT_NAME":"STARLINK-3602","OBJECT_ID":"2022-017Z","INCLINATION":"53.2180","RCS_SIZE":"LARGE","PERIOD":"95.436","APOAPSIS":"540.760","TIME_SYSTEM":"UTC","ARG_OF_PERICENTER":"49.2068","SEMIMAJOR_AXIS":"6917.783","BSTAR":"-0.00433250000000","MEAN_MOTION_DDOT":"0.0000000000000","LAUNCH_DATE":"2022-02-25","ELEMENT_SET_NO":"999","EPOCH":"2022-09-02T22:00:01.999584","MEAN_ELEMENT_THEORY":"SGP4","NORAD_CAT_ID":"51791","MEAN_MOTION_DOT":"-0.00068643","TLE_LINE2":"2 51791  53.2180 352.1968 0001607  49.2068 290.4767 15.08871790  1306","ECCENTRICITY":"0.00016070","CLASSIFICATION_TYPE":"U","SITE":"AFWTR","EPHEMERIS_TYPE":"0","FILE":"3555599","CENTER_NAME":"EARTH","TLE_LINE1":"1 51791U 22017Z   22245.91668981 -.00068643  00000-0 -43325-2 0  9996","REF_FRAME":"TEME","MEAN_MOTION":"15.08871790","GP_ID":"211590743","OBJECT_TYPE":"PAYLOAD","REV_AT_EPOCH":"130","PERIAPSIS":"538.537","RA_OF_ASC_NODE":"352.1968","DECAY_DATE":null,"MEAN_ANOMALY":"290.4767","COUNTRY_CODE":"US"},{"CENTER_NAME":"EARTH","REF_FRAME":"TEME","TLE_LINE1":"1 51792U 22017AA  22245.91668981 -.00024436  00000-0 -15220-2 0  9992","MEAN_MOTION":"15.08850481","OBJECT_TYPE":"PAYLOAD","GP_ID":"211590995","PERIAPSIS":"538.630","REV_AT_EPOCH":"130","RA_OF_ASC_NODE":"352.2150","DECAY_DATE":null,"MEAN_ANOMALY":"23.1047","COUNTRY_CODE":"US","MEAN_ELEMENT_THEORY":"SGP4","EPOCH":"2022-09-02T22:00:01.999584","NORAD_CAT_ID":"51792","MEAN_MOTION_DOT":"-0.00024436","TLE_LINE2":"2 51792  53.2166 352.2150 0001566  56.5810  23.1047 15.08850481  1301","ECCENTRICITY":"0.00015660","CLASSIFICATION_TYPE":"U","SITE":"AFWTR","EPHEMERIS_TYPE":"0","FILE":"3555599","SEMIMAJOR_AXIS":"6917.848","BSTAR":"-0.00152200000000","MEAN_MOTION_DDOT":"0.0000000000000","ELEMENT_SET_NO":"999","LAUNCH_DATE":"2022-02-25","OBJECT_ID":"2022-017AA","OBJECT_NAME":"STARLINK-3626","INCLINATION":"53.2166","RCS_SIZE":"LARGE","PERIOD":"95.437","APOAPSIS":"540.797","TIME_SYSTEM":"UTC","ARG_OF_PERICENTER":"56.5810"},{"BSTAR":"-0.00384000000000","SEMIMAJOR_AXIS":"6917.788","ELEMENT_SET_NO":"999","LAUNCH_DATE":"2022-02-25","MEAN_MOTION_DDOT":"0.0000000000000","INCLINATION":"53.2190","OBJECT_ID":"2022-017AB","OBJECT_NAME":"STARLINK-3633","ARG_OF_PERICENTER":"51.4748","PERIOD":"95.436","TIME_SYSTEM":"UTC","APOAPSIS":"540.701","RCS_SIZE":"LARGE","MEAN_MOTION":"15.08870329","REF_FRAME":"TEME","TLE_LINE1":"1 51793U 22017AB  22245.91668981 -.00060935  00000-0 -38400-2 0  9992","CENTER_NAME":"EARTH","COUNTRY_CODE":"US","DECAY_DATE":null,"RA_OF_ASC_NODE":"352.2049","MEAN_ANOMALY":"308.1910","GP_ID":"211591234","OBJECT_TYPE":"PAYLOAD","REV_AT_EPOCH":"130","PERIAPSIS":"538.604","ECCENTRICITY":"0.00015160","CLASSIFICATION_TYPE":"U","TLE_LINE2":"2 51793  53.2190 352.2049 0001516  51.4748 308.1910 15.08870329  1303","MEAN_MOTION_DOT":"-0.00060935","NORAD_CAT_ID":"51793","MEAN_ELEMENT_THEORY":"SGP4","EPOCH":"2022-09-02T22:00:01.999584","EPHEMERIS_TYPE":"0","FILE":"3555599","SITE":"AFWTR"},{"CENTER_NAME":"EARTH","REF_FRAME":"TEME","TLE_LINE1":"1 51794U 22017AC  22245.91668981 -.00022878  00000-0 -14238-2 0  9990","MEAN_MOTION":"15.08843787","REV_AT_EPOCH":"3011","PERIAPSIS":"538.785","GP_ID":"211561111","OBJECT_TYPE":"PAYLOAD","MEAN_ANOMALY":"60.4275","DECAY_DATE":null,"RA_OF_ASC_NODE":"352.2160","COUNTRY_CODE":"US","EPOCH":"2022-09-02T22:00:01.999584","MEAN_ELEMENT_THEORY":"SGP4","NORAD_CAT_ID":"51794","MEAN_MOTION_DOT":"-0.00022878","TLE_LINE2":"2 51794  53.2156 352.2160 0001371  59.2816  60.4275 15.08843787 30112","CLASSIFICATION_TYPE":"U","ECCENTRICITY":"0.00013710","SITE":"AFWTR","FILE":"3555344","EPHEMERIS_TYPE":"0","SEMIMAJOR_AXIS":"6917.869","BSTAR":"-0.00142380000000","MEAN_MOTION_DDOT":"0.0000000000000","ELEMENT_SET_NO":"999","LAUNCH_DATE":"2022-02-25","OBJECT_NAME":"STARLINK-3573","OBJECT_ID":"2022-017AC","INCLINATION":"53.2156","RCS_SIZE":"LARGE","APOAPSIS":"540.682","TIME_SYSTEM":"UTC","PERIOD":"95.437","ARG_OF_PERICENTER":"59.2816"},{"MEAN_MOTION_DDOT":"0.0000000000000","LAUNCH_DATE":"2022-02-25","ELEMENT_SET_NO":"999","BSTAR":"-0.00143050000000","SEMIMAJOR_AXIS":"6917.841","APOAPSIS":"540.629","TIME_SYSTEM":"UTC","PERIOD":"95.437","RCS_SIZE":"LARGE","ARG_OF_PERICENTER":"55.4574","OBJECT_NAME":"STARLINK-3586","OBJECT_ID":"2022-017AD","INCLINATION":"53.2156","PERIAPSIS":"538.782","REV_AT_EPOCH":"130","OBJECT_TYPE":"PAYLOAD","GP_ID":"211590244","COUNTRY_CODE":"US","MEAN_ANOMALY":"44.2169","RA_OF_ASC_NODE":"352.2170","DECAY_DATE":null,"REF_FRAME":"TEME","TLE_LINE1":"1 51795U 22017AD  22245.91668981 -.00022990  00000-0 -14305-2 0  9991","CENTER_NAME":"EARTH","MEAN_MOTION":"15.08853019","FILE":"3555599","EPHEMERIS_TYPE":"0","SITE":"AFWTR","MEAN_MOTION_DOT":"-0.00022990","MEAN_ELEMENT_THEORY":"SGP4","EPOCH":"2022-09-02T22:00:01.999584","NORAD_CAT_ID":"51795","CLASSIFICATION_TYPE":"U","ECCENTRICITY":"0.00013350","TLE_LINE2":"2 51795  53.2156 352.2170 0001335  55.4574  44.2169 15.08853019  1303"},{"INCLINATION":"53.2165","OBJECT_NAME":"STARLINK-3630","OBJECT_ID":"2022-017AE","ARG_OF_PERICENTER":"49.6346","RCS_SIZE":"LARGE","PERIOD":"95.437","APOAPSIS":"540.793","TIME_SYSTEM":"UTC","SEMIMAJOR_AXIS":"6917.853","BSTAR":"-0.00151040000000","ELEMENT_SET_NO":"999","LAUNCH_DATE":"2022-02-25","MEAN_MOTION_DDOT":"0.0000000000000","TLE_LINE2":"2 51796  53.2165 352.2004 0001554  49.6346 130.0320 15.08849087 30108","ECCENTRICITY":"0.00015540","CLASSIFICATION_TYPE":"U","MEAN_ELEMENT_THEORY":"SGP4","NORAD_CAT_ID":"51796","EPOCH":"2022-09-02T22:00:01.999584","MEAN_MOTION_DOT":"-0.00024252","SITE":"AFWTR","EPHEMERIS_TYPE":"0","FILE":"3555325","MEAN_MOTION":"15.08849087","CENTER_NAME":"EARTH","TLE_LINE1":"1 51796U 22017AE  22245.91668981 -.00024252  00000-0 -15104-2 0  9993","REF_FRAME":"TEME","DECAY_DATE":null,"RA_OF_ASC_NODE":"352.2004","MEAN_ANOMALY":"130.0320","COUNTRY_CODE":"US","GP_ID":"211560709","OBJECT_TYPE":"PAYLOAD","PERIAPSIS":"538.643","REV_AT_EPOCH":"3010"},{"MEAN_MOTION_DDOT":"0.0000000000000","ELEMENT_SET_NO":"999","LAUNCH_DATE":"2022-02-25","BSTAR":"-0.00150090000000","SEMIMAJOR_AXIS":"6917.833","PERIOD":"95.437","APOAPSIS":"540.854","TIME_SYSTEM":"UTC","RCS_SIZE":"LARGE","ARG_OF_PERICENTER":"48.4359","OBJECT_NAME":"STARLINK-3627","OBJECT_ID":"2022-017AF","INCLINATION":"53.2163","GP_ID":"211591734","OBJECT_TYPE":"PAYLOAD","REV_AT_EPOCH":"130","PERIAPSIS":"538.542","COUNTRY_CODE":"US","DECAY_DATE":null,"RA_OF_ASC_NODE":"352.2167","MEAN_ANOMALY":"11.2397","TLE_LINE1":"1 51797U 22017AF  22245.91668981 -.00024106  00000-0 -15009-2 0  9996","REF_FRAME":"TEME","CENTER_NAME":"EARTH","MEAN_MOTION":"15.08855437","EPHEMERIS_TYPE":"0","FILE":"3555599","SITE":"AFWTR","MEAN_MOTION_DOT":"-0.00024106","EPOCH":"2022-09-02T22:00:01.999584","MEAN_ELEMENT_THEORY":"SGP4","NORAD_CAT_ID":"51797","ECCENTRICITY":"0.00016710","CLASSIFICATION_TYPE":"U","TLE_LINE2":"2 51797  53.2163 352.2167 0001671  48.4359  11.2397 15.08855437  1308"},{"REV_AT_EPOCH":"3015","PERIAPSIS":"538.587","GP_ID":"211560844","OBJECT_TYPE":"PAYLOAD","COUNTRY_CODE":"US","MEAN_ANOMALY":"143.8606","RA_OF_ASC_NODE":"352.1932","DECAY_DATE":null,"TLE_LINE1":"1 51798U 22017AG  22245.91668981 -.00025254  00000-0 -15734-2 0  9997","REF_FRAME":"TEME","CENTER_NAME":"EARTH","MEAN_MOTION":"15.08857886","FILE":"3555325","EPHEMERIS_TYPE":"0","SITE":"AFWTR","MEAN_MOTION_DOT":"-0.00025254","MEAN_ELEMENT_THEORY":"SGP4","NORAD_CAT_ID":"51798","EPOCH":"2022-09-02T22:00:01.999584","CLASSIFICATION_TYPE":"U","ECCENTRICITY":"0.00015960","TLE_LINE2":"2 51798  53.2159 352.1932 0001596  55.8234 143.8606 15.08857886 30153","MEAN_MOTION_DDOT":"0.0000000000000","LAUNCH_DATE":"2022-02-25","ELEMENT_SET_NO":"999","BSTAR":"-0.00157340000000","SEMIMAJOR_AXIS":"6917.826","APOAPSIS":"540.795","TIME_SYSTEM":"UTC","PERIOD":"95.436","RCS_SIZE":"LARGE","ARG_OF_PERICENTER":"55.8234","OBJECT_ID":"2022-017AG","OBJECT_NAME":"STARLINK-3634","INCLINATION":"53.2159"},{"SEMIMAJOR_AXIS":"6917.829","BSTAR":"-0.00142810000000","LAUNCH_DATE":"2022-02-25","ELEMENT_SET_NO":"999","MEAN_MOTION_DDOT":"0.0000000000000","INCLINATION":"53.2165","OBJECT_ID":"2022-017AH","OBJECT_NAME":"STARLINK-3637","ARG_OF_PERICENTER":"51.0481","RCS_SIZE":"LARGE","APOAPSIS":"540.724","TIME_SYSTEM":"UTC","PERIOD":"95.436","MEAN_MOTION":"15.08856788","CENTER_NAME":"EARTH","REF_FRAME":"TEME","TLE_LINE1":"1 51799U 22017AH  22245.91668981 -.00022955  00000-0 -14281-2 0  9999","MEAN_ANOMALY":"88.6273","RA_OF_ASC_NODE":"352.2155","DECAY_DATE":null,"COUNTRY_CODE":"US","PERIAPSIS":"538.664","REV_AT_EPOCH":"3011","OBJECT_TYPE":"PAYLOAD","GP_ID":"211560867","TLE_LINE2":"2 51799  53.2165 352.2155 0001489  51.0481  88.6273 15.08856788 30114","CLASSIFICATION_TYPE":"U","ECCENTRICITY":"0.00014890","NORAD_CAT_ID":"51799","EPOCH":"2022-09-02T22:00:01.999584","MEAN_ELEMENT_THEORY":"SGP4","MEAN_MOTION_DOT":"-0.00022955","SITE":"AFWTR","FILE":"3555324","EPHEMERIS_TYPE":"0"}];
